[{"OBJECT_NAME":"STARLINK-35778","OBJECT_ID":"2025-288Q","EPOCH":"2026-03-09T22:00:01.999584","MEAN_MOTION":15.27567244,"ECCENTRICITY":0.00013665,"INCLINATION":43.0003,"RA_OF_ASC_NODE":21.8387,"ARG_OF_PERICENTER":259.3052,"MEAN_ANOMALY":184.3952,"EPHEMERIS_TYPE":0,"CLASSIFICATION_TYPE":"U","NORAD_CAT_ID":66973,"ELEMENT_SET_NO":999,"REV_AT_EPOCH":585,"BSTAR":0.00058021688,"MEAN_MOTION_DOT":0.00015732,"MEAN_MOTION_DDOT":0},{"OBJECT_NAME":"TITAN 3C TRANSTAGE DEB","OBJECT_ID":"1965-082PT","EPOCH":"2026-03-09T13:23:41.116128","MEAN_MOTION":15.28908269,"ECCENTRICITY":0.00104371,"INCLINATION":32.0266,"RA_OF_ASC_NODE":255.1391,"ARG_OF_PERICENTER":172.8339,"MEAN_ANOMALY":187.2474,"EPHEMERIS_TYPE":0,"CLASSIFICATION_TYPE":"U","NORAD_CAT_ID":3462,"ELEMENT_SET_NO":999,"REV_AT_EPOCH":24824,"BSTAR":0.0004444037,"MEAN_MOTION_DOT":0.00012939,"MEAN_MOTION_DDOT":0}]
